sat25449
1 25449U 94029AED 20046.77442308 -.00000123  00000-0 -75645-4 0  9994
2 25449  82.1357 169.8056 0974600 149.3338 216.8653 12.80613984  3897
